[{"OBJECT_NAME":"FLOCK 4G-24","OBJECT_ID":"2025-009AE","EPOCH":"2026-03-09T17:24:07.838208","MEAN_MOTION":15.27784978,"ECCENTRICITY":0.0001802,"INCLINATION":97.4061,"RA_OF_ASC_NODE":151.514,"ARG_OF_PERICENTER":280.2808,"MEAN_ANOMALY":79.8228,"EPHEMERIS_TYPE":0,"CLASSIFICATION_TYPE":"U","NORAD_CAT_ID":62637,"ELEMENT_SET_NO":999,"REV_AT_EPOCH":6373,"BSTAR":0.00038996067,"MEAN_MOTION_DOT":0.00010513,"MEAN_MOTION_DDOT":0},{"OBJECT_NAME":"STARLINK-36500","OBJECT_ID":"2026-002R","EPOCH":"2026-03-09T10:10:54.648768","MEAN_MOTION":15.27533622,"ECCENTRICITY":6.436e-5,"INCLINATION":42.9968,"RA_OF_ASC_NODE":327.1737,"ARG_OF_PERICENTER":351.1054,"MEAN_ANOMALY":8.9786,"EPHEMERIS_TYPE":0,"CLASSIFICATION_TYPE":"U","NORAD_CAT_ID":67320,"ELEMENT_SET_NO":999,"REV_AT_EPOCH":1109,"BSTAR":0.00091419923,"MEAN_MOTION_DOT":0.00024944,"MEAN_MOTION_DDOT":0}]
